{
  "links" : {
    "next" : "https://api.nasa.gov/neo/rest/v1/feed?start_date=2013-01-23&end_date=2013-01-23&detailed=true&api_key=t0TVs3DtDT2H8Oy2Zy8m2eVrNsAVKAexjcZXUckd",
    "prev" : "https://api.nasa.gov/neo/rest/v1/feed?start_date=2013-01-21&end_date=2013-01-21&detailed=true&api_key=t0TVs3DtDT2H8Oy2Zy8m2eVrNsAVKAexjcZXUckd",
    "self" : "https://api.nasa.gov/neo/rest/v1/feed?start_date=2013-01-22&end_date=2013-01-22&detailed=true&api_key=t0TVs3DtDT2H8Oy2Zy8m2eVrNsAVKAexjcZXUckd"
  },
  "element_count" : 6,
  "near_earth_objects" : {
    "2013-01-22" : [ {
      "links" : {
        "self" : "https://api.nasa.gov/neo/rest/v1/neo/3619728?api_key=t0TVs3DtDT2H8Oy2Zy8m2eVrNsAVKAexjcZXUckd"
      },
      "neo_reference_id" : "3619728",
      "name" : "(2012 XH55)",
      "nasa_jpl_url" : "http://ssd.jpl.nasa.gov/sbdb.cgi?sstr=3619728",
      "absolute_magnitude_h" : 19.0,
      "estimated_diameter" : {
        "kilometers" : {
          "estimated_diameter_min" : 0.4212646106,
          "estimated_diameter_max" : 0.9419763057
        },
        "meters" : {
          "estimated_diameter_min" : 421.2646105562,
          "estimated_diameter_max" : 941.9763057186
        },
        "miles" : {
          "estimated_diameter_min" : 0.2617616123,
          "estimated_diameter_max" : 0.5853167591
        },
        "feet" : {
          "estimated_diameter_min" : 1382.1017848971,
          "estimated_diameter_max" : 3090.4735428537
        }
      },
      "is_potentially_hazardous_asteroid" : false,
      "close_approach_data" : [ {
        "close_approach_date" : "2013-01-22",
        "epoch_date_close_approach" : 1358841600000,
        "relative_velocity" : {
          "kilometers_per_second" : "20.0070924026",
          "kilometers_per_hour" : "72025.5326491811",
          "miles_per_hour" : "44753.8649952648"
        },
        "miss_distance" : {
          "astronomical" : "0.309099024",
          "lunar" : "120.2395172119",
          "kilometers" : "46240556",
          "miles" : "28732550"
        },
        "orbiting_body" : "Earth"
      } ],
      "orbital_data" : {
        "orbit_id" : "22",
        "orbit_determination_date" : "2017-04-06 08:47:46",
        "orbit_uncertainty" : "4",
        "minimum_orbit_intersection" : ".0723948",
        "jupiter_tisserand_invariant" : "3.402",
        "epoch_osculation" : "2458000.5",
        "eccentricity" : ".7076937472314243",
        "semi_major_axis" : "1.972655780319456",
        "inclination" : "28.49980162382593",
        "ascending_node_longitude" : "107.9103020199953",
        "orbital_period" : "1011.988065800937",
        "perihelion_distance" : ".5766196191474509",
        "perihelion_argument" : "77.47282878244877",
        "aphelion_distance" : "3.368691941491461",
        "perihelion_time" : "2458377.194265923278",
        "mean_anomaly" : "225.9965069597418",
        "mean_motion" : ".3557354203728465",
        "equinox" : "J2000"
      }
    }, {
      "links" : {
        "self" : "https://api.nasa.gov/neo/rest/v1/neo/3624591?api_key=t0TVs3DtDT2H8Oy2Zy8m2eVrNsAVKAexjcZXUckd"
      },
      "neo_reference_id" : "3624591",
      "name" : "(2013 BP15)",
      "nasa_jpl_url" : "http://ssd.jpl.nasa.gov/sbdb.cgi?sstr=3624591",
      "absolute_magnitude_h" : 24.3,
      "estimated_diameter" : {
        "kilometers" : {
          "estimated_diameter_min" : 0.0366906138,
          "estimated_diameter_max" : 0.0820427065
        },
        "meters" : {
          "estimated_diameter_min" : 36.6906137531,
          "estimated_diameter_max" : 82.0427064882
        },
        "miles" : {
          "estimated_diameter_min" : 0.0227984834,
          "estimated_diameter_max" : 0.0509789586
        },
        "feet" : {
          "estimated_diameter_min" : 120.3760332259,
          "estimated_diameter_max" : 269.1689931548
        }
      },
      "is_potentially_hazardous_asteroid" : false,
      "close_approach_data" : [ {
        "close_approach_date" : "2013-01-22",
        "epoch_date_close_approach" : 1358841600000,
        "relative_velocity" : {
          "kilometers_per_second" : "8.8410058893",
          "kilometers_per_hour" : "31827.6212015278",
          "miles_per_hour" : "19776.4460738049"
        },
        "miss_distance" : {
          "astronomical" : "0.162904738",
          "lunar" : "63.3699417114",
          "kilometers" : "24370202",
          "miles" : "15142942"
        },
        "orbiting_body" : "Earth"
      } ],
      "orbital_data" : {
        "orbit_id" : "6",
        "orbit_determination_date" : "2017-04-06 08:47:10",
        "orbit_uncertainty" : "7",
        "minimum_orbit_intersection" : ".0940666",
        "jupiter_tisserand_invariant" : "5.862",
        "epoch_osculation" : "2458000.5",
        "eccentricity" : ".1426422969474784",
        "semi_major_axis" : "1.038264815375455",
        "inclination" : "15.87190345760672",
        "ascending_node_longitude" : "299.207070701259",
        "orbital_period" : "386.4209218812372",
        "perihelion_distance" : ".890164337270551",
        "perihelion_argument" : "320.0414320790257",
        "aphelion_distance" : "1.18636529348036",
        "perihelion_time" : "2457997.557541639502",
        "mean_anomaly" : "2.741272404771551",
        "mean_motion" : ".931626575102066",
        "equinox" : "J2000"
      }
    }, {
      "links" : {
        "self" : "https://api.nasa.gov/neo/rest/v1/neo/3014114?api_key=t0TVs3DtDT2H8Oy2Zy8m2eVrNsAVKAexjcZXUckd"
      },
      "neo_reference_id" : "3014114",
      "name" : "(1998 SZ27)",
      "nasa_jpl_url" : "http://ssd.jpl.nasa.gov/sbdb.cgi?sstr=3014114",
      "absolute_magnitude_h" : 20.6,
      "estimated_diameter" : {
        "kilometers" : {
          "estimated_diameter_min" : 0.2016299194,
          "estimated_diameter_max" : 0.4508582062
        },
        "meters" : {
          "estimated_diameter_min" : 201.6299194428,
          "estimated_diameter_max" : 450.8582061718
        },
        "miles" : {
          "estimated_diameter_min" : 0.1252869847,
          "estimated_diameter_max" : 0.2801502144
        },
        "feet" : {
          "estimated_diameter_min" : 661.5155049046,
          "estimated_diameter_max" : 1479.1936371367
        }
      },
      "is_potentially_hazardous_asteroid" : true,
      "close_approach_data" : [ {
        "close_approach_date" : "2013-01-22",
        "epoch_date_close_approach" : 1358841600000,
        "relative_velocity" : {
          "kilometers_per_second" : "18.5088104409",
          "kilometers_per_hour" : "66631.7175873142",
          "miles_per_hour" : "41402.3580752953"
        },
        "miss_distance" : {
          "astronomical" : "0.3755688917",
          "lunar" : "146.0962982178",
          "kilometers" : "56184308",
          "miles" : "34911312"
        },
        "orbiting_body" : "Earth"
      } ],
      "orbital_data" : {
        "orbit_id" : "20",
        "orbit_determination_date" : "2017-09-26 06:49:30",
        "orbit_uncertainty" : "1",
        "minimum_orbit_intersection" : ".00776213",
        "jupiter_tisserand_invariant" : "6.406",
        "epoch_osculation" : "2458000.5",
        "eccentricity" : ".5067309960541482",
        "semi_major_axis" : ".905332741622625",
        "inclination" : "23.64366894559662",
        "ascending_node_longitude" : "166.721693930318",
        "orbital_period" : "314.637706309309",
        "perihelion_distance" : ".4465725796997594",
        "perihelion_argument" : "47.72096542591851",
        "aphelion_distance" : "1.364092903545491",
        "perihelion_time" : "2457924.178594344949",
        "mean_anomaly" : "87.3248993520435",
        "mean_motion" : "1.144173100620359",
        "equinox" : "J2000"
      }
    } ]
  }
}